STARLINK-3617           
1 51780U 22017N   22085.25001157  .00100207  00000+0  71094-3 0  9994
2 51780  53.2173   2.0325 0001128  69.0889  18.3848 15.73166170  5787
STARLINK-3580           
1 51781U 22017P   22084.91668981  .00012613  00000+0  94218-4 0  9998
2 51781  53.2183   3.6835 0001144  73.3133 283.3870 15.73181863  3749
STARLINK-3616           
1 51782U 22017Q   22085.25001157 -.00712181  00000+0 -85427-2 0  9992
2 51782  53.2172   2.2583 0001095  76.5771 239.2474 15.62566323  5738
STARLINK-3628           
1 51783U 22017R   22085.25001157  .00019189  00000+0  14086-3 0  9993
2 51783  53.2169   2.0331 0001244  76.2281  10.6705 15.73194731  5733
STARLINK-3632           
1 51784U 22017S   22085.25001157 -.00712295  00000+0 -85013-2 0  9991
2 51784  53.2173   2.2577 0001104  70.6837 248.9608 15.62694199  5743
STARLINK-3646           
1 51785U 22017T   22085.25001157  .00075229  00000+0  53637-3 0  9997
2 51785  53.2170   2.0304 0001214  65.0143  23.1597 15.73168028  5780
STARLINK-3638           
1 51786U 22017U   22085.25001157 -.00712423  00000+0 -84179-2 0  9998
2 51786  53.2173   2.2562 0001041  79.2779 247.8914 15.62949909  5783
STARLINK-3619           
1 51787U 22017V   22085.25001157 -.00712236  00000+0 -85862-2 0  9991
2 51787  53.2172   2.2588 0001180  59.6076 252.3584 15.62438570  5733
STARLINK-3641           
1 51788U 22017W   22084.91668981 -.00715503  00000+0 -81627-2 0  9993
2 51788  53.2176   3.8774 0001272  67.5754 193.2837 15.63844658  3747
STARLINK-3639           
1 51789U 22017X   22085.25001157 -.00712276  00000+0 -84585-2 0  9998
2 51789  53.2173   2.2570 0001061  86.5763 236.8498 15.62821994  5745
STARLINK-3631           
1 51790U 22017Y   22084.91668981 -.00715733  00000+0 -81242-2 0  9994
2 51790  53.2176   3.8763 0001240  70.3935 193.9018 15.63972605  3704
STARLINK-3602           
1 51791U 22017Z   22084.91668981 -.00715317  00000+0 -82435-2 0  9998
2 51791  53.2176   3.8793 0001325  60.4497 193.4218 15.63588935  3701
STARLINK-3626           
1 51792U 22017AA  22084.91668981 -.00716059  00000+0 -80458-2 0  9996
2 51792  53.2176   3.8738 0001270  62.9923 208.0602 15.64228392  3700
STARLINK-3633           
1 51793U 22017AB  22084.91668981 -.00715457  00000+0 -82037-2 0  9993
2 51793  53.2176   3.8784 0001259  68.1266 189.2579 15.63716827  3704
STARLINK-3573           
1 51794U 22017AC  22085.16667824 -.00714962  00000+0 -80734-2 0  9999
2 51794  53.2175   2.6532 0001185  99.2294 147.0248 15.64101143  5714
STARLINK-3586           
1 51795U 22017AD  22084.91668981 -.00716017  00000+0 -80046-2 0  9996
2 51795  53.2176   3.8724 0001181  83.3263 191.0472 15.64356169  3747
STARLINK-3630           
1 51796U 22017AE  22085.16667824 -.00712704  00000+0 -87044-2 0  9994
2 51796  53.2175   2.6467 0001334  66.2521 134.5263 15.62107011  5712
STARLINK-3627           
1 51797U 22017AF  22085.16667824 -.00714937  00000+0 -81970-2 0  9997
2 51797  53.2175   2.6572 0001203  91.4777 144.4682 15.63717854  5761
STARLINK-3634           
1 51798U 22017AG  22085.16667824 -.00713060  00000+0 -86656-2 0  9990
2 51798  53.2175   2.6464 0001316  67.3737 137.3626 15.62235057  5763
STARLINK-3637           
1 51799U 22017AH  22084.91668981 -.00716468  00000+0 -79286-2 0  9994
2 51799  53.2176   3.8695 0001199  71.6811 209.2191 15.64612016  3742
STARLINK-3600           
1 51800U 22017AJ  22084.91668981 -.00714778  00000+0 -84843-2 0  9994
2 51800  53.2176   3.8630 0001348  60.6840 183.8679 15.62839483  3701
STARLINK-3592           
1 51801U 22017AK  22085.16667824 -.00712669  00000+0 -87476-2 0  9990
2 51801  53.2175   2.6470 0001328  66.5491 130.2326 15.61979198  5721
STARLINK-3557           
1 51802U 22017AL  22085.16667824 -.00714344  00000+0 -82160-2 0  9998
2 51802  53.2175   2.6453 0001211 101.1101 140.0513 15.63636665  5715
STARLINK-3544           
1 51803U 22017AM  22084.91668981 -.00714795  00000+0 -85156-2 0  9994
2 51803  53.2176   3.8636 0001435  53.1561 188.4658 15.62745984  3748
STARLINK-3601           
1 51804U 22017AN  22084.91668981  .00013526  00000+0  10079-3 0  9990
2 51804  53.2207   3.6366 0000888  70.7313 312.4553 15.73162393  3701
STARLINK-3605           
1 51805U 22017AP  22084.91668981 -.00022872  00000+0 -15885-3 0  9997
2 51805  53.2178   3.6533 0001149  78.0719 293.9830 15.73220960  3703
STARLINK-3581           
1 51806U 22017AQ  22084.91668981  .00010906  00000+0  82134-4 0  9993
2 51806  53.2188   3.6479 0000929  78.4981 296.7417 15.73165845  3740
STARLINK-3606           
1 51807U 22017AR  22084.91668981 -.00022557  00000+0 -15660-3 0  9990
2 51807  53.2185   3.6509 0001212  86.6289 286.6859 15.73219834  3702
STARLINK-3609           
1 51808U 22017AS  22085.16667824  .00096256  00000+0  68353-3 0  9996
2 51808  53.2189   2.4096 0000900  80.9020 272.2305 15.73161976  5722
STARLINK-3607           
1 51809U 22017AT  22085.25001157  .00022747  00000+0  16591-3 0  9999
2 51809  53.2179   2.0017 0001217  78.5864  24.1977 15.73219752  5738
STARLINK-3613           
1 51810U 22017AU  22084.91668981  .00012771  00000+0  95303-4 0  9992
2 51810  53.2190   3.6422 0001339  70.8107 306.9968 15.73191721  3745
STARLINK-3569           
1 51811U 22017AV  22084.91668981  .00016527  00000+0  12199-3 0  9997
2 51811  53.2185   3.6448 0001094  93.4801 282.3925 15.73190698  3740
STARLINK-3610           
1 51812U 22017AW  22084.91668981  .00011843  00000+0  88784-4 0  9998
2 51812  53.2178   3.6407 0000943 103.6354 274.7964 15.73170968  3743
STARLINK-3552           
1 51813U 22017AX  22084.91668981  .00013395  00000+0  99763-4 0  9992
2 51813  53.2183   3.6432 0000772 108.4552 268.7026 15.73184686  3745
STARLINK-3599           
1 51814U 22017AY  22085.16667824  .00095912  00000+0  68127-3 0  9990
2 51814  53.2169   2.4028 0000918  85.0776 271.2667 15.73157129  5720
STARLINK-3604           
1 51815U 22017AZ  22085.16667824  .00096589  00000+0  68523-3 0  9992
2 51815  53.2182   2.4034 0001086  64.1280 291.5452 15.73183258  5727
STARLINK-3603           
1 51816U 22017BA  22085.16667824  .00094378  00000+0  67053-3 0  9994
2 51816  53.2189   2.4022 0000980  84.6839 272.2992 15.73158441  5777
STARLINK-3596           
1 51817U 22017BB  22085.03960178 -.00080357  00000+0 -34652-3 0  9992
2 51817  53.2213   0.8167 0007427 272.9896  87.0279 15.84254711  5731
FALCON 9 DEB            
1 51818U 22017BC  22085.13282179  .00350589  62583-4  70081-3 0  9992
2 51818  53.2306 359.2480 0002649 332.6436  27.4456 15.99296752  4538
FALCON 9 DEB            
1 51819U 22017BD  22085.05249953  .00415151  86288-4  73505-3 0  9996
2 51819  53.2263 359.4390 0003388 267.8852  92.1793 16.01379348  4524
FALCON 9 DEB            
1 51820U 22017BE  22085.15591342  .00368329  70913-4  60574-3 0  9995
2 51820  53.2235 358.6382 0005852 302.9621  57.0849 16.02624168  4548
FALCON 9 DEB            
1 51821U 22017BF  22085.02730499  .00464954  10874-3  74367-3 0  9995
2 51821  53.2196 359.2489 0005878 281.2792  78.7580 16.03067524  4524
L-SAR 01B               
1 51822U 22018A   22085.12224694  .00000556  00000+0  65835-4 0  9994
2 51822  97.8105  93.6796 0001715  89.3767 270.7653 14.88419900  4035
CZ-4C R/B               
1 51823U 22018B   22085.08991874  .00005566  00000+0  20700-3 0  9998
2 51823  97.8623  95.2186 0131480 307.5575  51.3767 15.20173002  4112
2022-019A               
1 51824U 22019A   22085.18179978  .00002140  00000+0  13990-3 0  9992
2 51824  97.5168 161.4281 0020959 173.5292 270.5902 15.08683289  4082
2022-019B               
1 51825U 22019B   22085.17726728  .00001761  00000+0  11518-3 0  9995
2 51825  97.5165 161.4289 0018974 169.6309 274.3772 15.08923094  4074
2022-019C               
1 51826U 22019C   22085.17359522  .00002567  00000+0  16513-3 0  9995
2 51826  97.5158 161.4289 0018439 171.0643 272.7893 15.09149057  4077
2022-019D               
1 51827U 22019D   22085.17243512  .00001906  00000+0  12352-3 0  9990
2 51827  97.5174 161.4372 0017048 170.1581 273.8136 15.09193081  4073
2022-019E               
1 51828U 22019E   22085.17172595  .00002655  00000+0  17019-3 0  9990
2 51828  97.5166 161.4366 0017959 172.0732 271.7804 15.09253516  4077
2022-019F               
1 51829U 22019F   22085.15468732  .00005846  00000+0  36848-3 0  9996
2 51829  97.5215 161.4415 0017723 173.0316 187.1162 15.09390115  4070
2022-019G               
1 51830U 22019G   22085.15467866  .00005431  00000+0  34258-3 0  9998
2 51830  97.5152 161.4148 0018257 173.0688 187.0797 15.09387471  4074
2022-019H               
1 51831U 22019H   22085.16974201  .00002505  00000+0  16029-3 0  9991
2 51831  97.5174 161.4373 0018427 180.3039 263.7877 15.09360975  4070
2022-019J               
1 51832U 22019J   22085.16971889  .00001179  00000+0  77548-4 0  9991
2 51832  97.5158 161.4361 0018720 178.9945 265.5037 15.09344987  4078
2022-019K               
1 51833U 22019K   22085.15837597  .00003606  00000+0  22694-3 0  9996
2 51833  97.5144 161.4333 0016474 176.0778 238.7847 15.09720576  4073
2022-019L               
1 51834U 22019L   22085.16421311  .00002933  00000+0  18541-3 0  9999
2 51834  97.5179 161.4561 0016939 178.2803 267.6721 15.09691894  4076
2022-019M               
1 51835U 22019M   22085.16412061  .00002784  00000+0  17621-3 0  9994
2 51835  97.5177 161.4455 0016748 178.8919 267.2172 15.09698841  4074
2022-019N               
1 51836U 22019N   22085.16236899  .00004450  00000+0  27830-3 0  9993
2 51836  97.5167 161.4488 0016876 178.4817 265.2077 15.09818728  4075
2022-019P               
1 51837U 22019P   22085.15947120  .00004492  00000+0  27962-3 0  9991
2 51837  97.5126 161.4344 0016131 179.6780 264.6409 15.09989039  4074
2022-019Q               
1 51838U 22019Q   22085.15910602  .00003063  00000+0  19214-3 0  9991
2 51838  97.5174 161.4566 0015781 177.8444 265.9533 15.09958907  4073
